{
  "members": [
    {
      "business": "Ace Hardware",
      "address": "2556 N 400 W",
      "city": "North Ogden",
      "state": "UT",
      "zipcode": "84414",
      "phonenumber": "(801) 823-2514",
      "logo": "/jsonimages/logo-ace.png",
      "webaddress": "http://www.acehardware.com"      
    },
    {
      "business": "Advanced Armor Technology",
      "address": "623 E 2550 N",
      "city": "North Ogden",
      "state": "UT",
      "zipcode": "84414",
      "phonenumber": "(801) 814-2609",
      "logo": "/jsonimages/logo-advance.png",
      "webaddress": "http://www.advancedarmortechnology.com"
    },
    {
      "business": "Big O Tire",
      "address": "1893 N 400 E",
      "city": "North Ogden",
      "state": "UT",
      "zipcode": "84414",
      "phonenumber": "(801) 737-4781",
      "logo": "/jsonimages/logo-bigo.png",
      "webaddress": "http://www.bigotires.com/location/ut-north-ogden-84414/044016"
    },
    {
      "business": "Intermountain North Ogden Clinic",
      "address": "2400 N Washington Blvd",
      "city": "North Ogden",
      "state": "UT",
      "zipcode": "84414",
      "phonenumber": "(801) 786-7500",
      "logo": "/jsonimages/logo-na.png",
      "webaddress": "http://www.intermountainhealthcare.org"
    },
    {
      "business": "Kirt's Drive Inn",
      "address": "1974 N 400 E",
      "city": "North Ogden",
      "state": "UT",
      "zipcode": "84414",
      "phonenumber": "(801) 782-5350",
      "logo": "/jsonimages/logo-na.png",
      "webaddress": "N/A"
    },
    {
      "business": "Lee's Marketplace",
      "address": "2645 N Washington Blvd",
      "city": "North Ogden",
      "state": "UT",
      "zipcode": "84414",
      "phonenumber": "(801) 782-7800",
      "logo": "/jsonimages/logo-lees.png",
      "webaddress": "http://www.leesmaketplace.com"
    },
    {
      "business": "Lindquist's North Ogden Mortuary",
      "address": "2140 N Washington Blvd",
      "city": "North Ogden",
      "state": "UT",
      "zipcode": "84414",
      "phonenumber": "(801) 782-6666",
      "logo": "/jsonimages/logo-lindquist.png",
      "webaddress": "http://www.linquistmortuary.com"
    },
    {
      "business": "Mrs. Cavanaugh's Chocolates",
      "address": "1993 N Washington Blvd",
      "city": "North Ogden",
      "state": "UT",
      "zipcode": "84414",
      "phonenumber": "(801) 737-3456",
      "logo": "/jsonimages/logo-cavanaughs.png",
      "webaddress": "http://www.mrscavanaughs.com"
    },
    {
      "business": "North Ogden Animal Hospital",
      "address": "1580 N Washington Blvd",
      "city": "North Ogden",
      "state": "UT",
      "zipcode": "84414",
      "phonenumber": "(801) 782-4401",
      "logo": "/jsonimages/logo-na.png",
      "webaddress": "http://www.northogdenanimalhospital.com"
    },
    {
      "business": "North Ogden City",
      "address": "505 E 2600 N",
      "city": "North Ogden",
      "state": "UT",
      "zipcode": "84414",
      "phonenumber": "(801) 782-7211",
      "logo": "/jsonimages/logo-nocity.png",
      "webaddress": "https://www.northogdencity.com"
    },{
      "business": "O'Reilly Auto Parts",
      "address": "2596 N 300 E",
      "city": "North Ogden",
      "state": "UT",
      "zipcode": "84414",
      "phonenumber": "(801) 564-6059",
      "logo": "/jsonimages/logo-na.png",
      "webaddress": "http://www.oreillyauto.com"
    },
    {
      "business": "Papa Murphy's Pizza",
      "address": "2641 N Washington Blvd",
      "city": "North Ogden",
      "state": "UT",
      "zipcode": "84414",
      "phonenumber": "(801) 786-8686",
      "logo": "/jsonimages/logo-papamurphy.png",
      "webaddress": "http://locations.papamurphys.com/ut/north-ogden/2641-north-washington-blvd"
    },
    {
      "business": "Pizza Man",
      "address": "1958 N 500 E",
      "city": "North Ogden",
      "state": "UT",
      "zipcode": "84414",
      "phonenumber": "(801) 782-3000",
      "logo": "/jsonimages/logo-na.png",
      "webaddress": "N/A"
    },
    {
      "business": "Pizza Pie Cafe",
      "address": "1970 N Washington Blvd",
      "city": "North Ogden",
      "state": "UT",
      "zipcode": "84414",
      "phonenumber": "(385) 244-1923",
      "logo": "/jsonimages/logo-na.png",
      "webaddress": "http://www.pizzapiecafe.co"
    },
    {
      "business": "Smith's Market Place",
      "address": "2434 N Washington Blvd",
      "city": "North Ogden",
      "state": "UT",
      "zipcode": "84414",
      "phonenumber": "(801) 917-1977",
      "logo": "/jsonimages/logo-smiths.png",
      "webaddress": "http://www.smithsfoodanddrug.com"
    },
    {
      "business": "Ultimate Express Carwash",
      "address": "1853 N Washington Blvd",
      "city": "North Ogden",
      "state": "UT",
      "zipcode": "84414",
      "phonenumber": "(385) 333-4705",
      "logo": "/jsonimages/logo-na.png",
      "webaddress": "http://www.carwashutah.com"
    },
    {
      "business": "Walker Cinemas",
      "address": "1610 N Washington Blvd",
      "city": "North Ogden",
      "state": "UT",
      "zipcode": "84414",
      "phonenumber": "(801) 737-9183",
      "logo": "/jsonimages/logo-walker.png",
      "webaddress": "http://www.walkercinemas.net"
    },
    {
      "business": "Zhang's Chinese Kitchen",
      "address": "2586 N 400 E",
      "city": "North Ogden",
      "state": "UT",
      "zipcode": "84414",
      "phonenumber": "(801) 737-3393",
      "logo": "/jsonimages/logo-zhangs.png",
      "webaddress": "http://www.zhangschinesekitchen.net"
    }
  ]
}